NESS                    
1 58020U 23155E   26068.76452457  .00019469  00000+0  74047-3 0  9996
2 58020  97.5941 152.6141 0006891 179.8776 180.2465 15.26794015133307
STARLINK-33823          
1 63661U 25083AD  26068.15379871  .00030223  00000+0  11033-2 0  9992
2 63661  43.0046   8.3424 0001643 278.9634  81.1032 15.27578959 50014
